[Satellite]
VERSION=1.1
NAME=STARLINK-5120
NICKNAME=STARLINK-5120
TLE1=1 53982U 22125U   22297.16668981 -.00125909  00000+0 -90630-3 0  9994
TLE2=2 53982  53.2190   1.5051 0002527  14.1099 248.8252 15.73191621  3258
STATUS=0
